{
  "norad_id": 55922,
  "name": "STARLINK-5863",
  "history": [
    {
      "epoch": "2026-03-28T21:19:51.220128Z",
      "apogee_km": 573.8113792888562,
      "perigee_km": 570.290414100391,
      "latitude_deg": 8.89220375958276e-06,
      "longitude_deg": 109.7538213892189,
      "height_km": 574.4170004362591,
      "semi_major_axis_km": 6950.187896694623,
      "eccentricity": 0.0002533,
      "inclination_deg": 69.9988,
      "raan_deg": 256.02,
      "arg_perigee_deg": 271.9785,
      "mean_anomaly_deg": 88.1084,
      "mean_motion_rev_day": 14.98331615
    }
  ]
}